start=new Date('2023-06-28T00:00:00.000Z').valueOf();
sats=[{"MEAN_MOTION":"15.01260599","ECCENTRICITY":"0.00039620","GP_ID":"234573497","NORAD_CAT_ID":"53683","SEMIMAJOR_AXIS":"6941.145","TLE_LINE2":"2 53683  97.6568  58.6142 0003962  72.4518 287.7139 15.01260599 45432","APOAPSIS":"565.760","MEAN_MOTION_DOT":"0.00001270","LAUNCH_DATE":"2022-08-31","MEAN_ELEMENT_THEORY":"SGP4","ARG_OF_PERICENTER":"72.4518","OBJECT_NAME":"STARLINK-4625","RCS_SIZE":"LARGE","MEAN_ANOMALY":"287.7139","OBJECT_TYPE":"PAYLOAD","BSTAR":"0.00010348000000","COUNTRY_CODE":"US","TLE_LINE1":"1 53683U 22105AM  23177.67517707  .00001270  00000-0  10348-3 0  9994","TIME_SYSTEM":"UTC","REF_FRAME":"TEME","FILE":"3943631","CLASSIFICATION_TYPE":"U","PERIAPSIS":"560.260","INCLINATION":"97.6568","DECAY_DATE":null,"RA_OF_ASC_NODE":"58.6142","ELEMENT_SET_NO":"999","PERIOD":"95.919","SITE":"AFWTR","OBJECT_ID":"2022-105AM","REV_AT_EPOCH":"4543","EPHEMERIS_TYPE":"0","CENTER_NAME":"EARTH","MEAN_MOTION_DDOT":"0.0000000000000","EPOCH":"2023-06-26T16:12:15.298848"},{"ELEMENT_SET_NO":"999","PERIOD":"95.920","CENTER_NAME":"EARTH","MEAN_MOTION_DDOT":"0.0000000000000","EPOCH":"2023-06-27T03:50:45.788352","SITE":"AFWTR","OBJECT_ID":"2022-105AN","REV_AT_EPOCH":"4550","EPHEMERIS_TYPE":"0","REF_FRAME":"TEME","FILE":"3943891","DECAY_DATE":null,"RA_OF_ASC_NODE":"59.1486","CLASSIFICATION_TYPE":"U","PERIAPSIS":"561.760","INCLINATION":"97.6590","MEAN_ELEMENT_THEORY":"SGP4","ARG_OF_PERICENTER":"94.0224","OBJECT_NAME":"STARLINK-4624","LAUNCH_DATE":"2022-08-31","COUNTRY_CODE":"US","TLE_LINE1":"1 53684U 22105AN  23178.16025218  .00001028  00000-0  84649-4 0  9998","TIME_SYSTEM":"UTC","MEAN_ANOMALY":"266.1207","RCS_SIZE":"LARGE","OBJECT_TYPE":"PAYLOAD","BSTAR":"0.00008464900000","GP_ID":"234579815","NORAD_CAT_ID":"53684","SEMIMAJOR_AXIS":"6941.152","TLE_LINE2":"2 53684  97.6590  59.1486 0001811  94.0224 266.1207 15.01258385 45505","MEAN_MOTION":"15.01258385","ECCENTRICITY":"0.00018110","MEAN_MOTION_DOT":"0.00001028","APOAPSIS":"564.274"},{"TLE_LINE1":"1 53685U 22105AP  23177.93808638  .00001061  00000-0  87209-4 0  9990","TIME_SYSTEM":"UTC","COUNTRY_CODE":"US","OBJECT_TYPE":"PAYLOAD","BSTAR":"0.00008720900000","RCS_SIZE":"LARGE","MEAN_ANOMALY":"306.8536","OBJECT_NAME":"STARLINK-4626","ARG_OF_PERICENTER":"53.3070","MEAN_ELEMENT_THEORY":"SGP4","LAUNCH_DATE":"2022-08-31","MEAN_MOTION_DOT":"0.00001061","APOAPSIS":"565.906","TLE_LINE2":"2 53685  97.6567  58.8719 0004167  53.3070 306.8536 15.01259484 45473","GP_ID":"234579483","NORAD_CAT_ID":"53685","SEMIMAJOR_AXIS":"6941.148","MEAN_MOTION":"15.01259484","ECCENTRICITY":"0.00041670","MEAN_MOTION_DDOT":"0.0000000000000","EPOCH":"2023-06-26T22:30:50.663232","CENTER_NAME":"EARTH","REV_AT_EPOCH":"4547","EPHEMERIS_TYPE":"0","SITE":"AFWTR","OBJECT_ID":"2022-105AP","ELEMENT_SET_NO":"999","PERIOD":"95.919","RA_OF_ASC_NODE":"58.8719","DECAY_DATE":null,"INCLINATION":"97.6567","PERIAPSIS":"560.121","CLASSIFICATION_TYPE":"U","REF_FRAME":"TEME","FILE":"3943891"},{"CENTER_NAME":"EARTH","EPOCH":"2023-06-27T13:59:06.179424","MEAN_MOTION_DDOT":"0.0000000000000","OBJECT_ID":"2022-105AQ","SITE":"AFWTR","EPHEMERIS_TYPE":"0","REV_AT_EPOCH":"4557","ELEMENT_SET_NO":"999","PERIOD":"95.868","DECAY_DATE":null,"RA_OF_ASC_NODE":"59.5428","CLASSIFICATION_TYPE":"U","INCLINATION":"97.6546","PERIAPSIS":"558.560","FILE":"3944494","REF_FRAME":"TEME","COUNTRY_CODE":"US","TIME_SYSTEM":"UTC","TLE_LINE1":"1 53686U 22105AQ  23178.58271041  .00001199  00000-0  95895-4 0  9997","MEAN_ANOMALY":"263.1796","RCS_SIZE":"LARGE","BSTAR":"0.00009589500000","OBJECT_TYPE":"PAYLOAD","MEAN_ELEMENT_THEORY":"SGP4","OBJECT_NAME":"STARLINK-4467","ARG_OF_PERICENTER":"96.9750","LAUNCH_DATE":"2022-08-31","MEAN_MOTION_DOT":"0.00001199","APOAPSIS":"562.486","SEMIMAJOR_AXIS":"6938.658","GP_ID":"234594421","NORAD_CAT_ID":"53686","TLE_LINE2":"2 53686  97.6546  59.5428 0002829  96.9750 263.1796 15.02067775 45572","ECCENTRICITY":"0.00028290","MEAN_MOTION":"15.02067775"},{"PERIOD":"95.919","ELEMENT_SET_NO":"999","OBJECT_ID":"2022-105AR","SITE":"AFWTR","EPHEMERIS_TYPE":"0","REV_AT_EPOCH":"4547","CENTER_NAME":"EARTH","EPOCH":"2023-06-26T22:28:10.517376","MEAN_MOTION_DDOT":"0.0000000000000","FILE":"3943892","REF_FRAME":"TEME","CLASSIFICATION_TYPE":"U","INCLINATION":"97.6556","PERIAPSIS":"560.340","DECAY_DATE":null,"RA_OF_ASC_NODE":"58.8691","LAUNCH_DATE":"2022-08-31","MEAN_ELEMENT_THEORY":"SGP4","OBJECT_NAME":"STARLINK-4569","ARG_OF_PERICENTER":"51.4788","MEAN_ANOMALY":"308.6780","RCS_SIZE":"LARGE","BSTAR":"0.00002761900000","OBJECT_TYPE":"PAYLOAD","COUNTRY_CODE":"US","TIME_SYSTEM":"UTC","TLE_LINE1":"1 53687U 22105AR  23177.93623284  .00000296  00000-0  27619-4 0  9992","ECCENTRICITY":"0.00038380","MEAN_MOTION":"15.01262622","SEMIMAJOR_AXIS":"6941.139","NORAD_CAT_ID":"53687","GP_ID":"234579502","TLE_LINE2":"2 53687  97.6556  58.8691 0003838  51.4788 308.6780 15.01262622 45470","APOAPSIS":"565.668","MEAN_MOTION_DOT":"0.00000296"},{"TIME_SYSTEM":"UTC","TLE_LINE1":"1 53688U 22105AS  23177.66406977  .00000177  00000-0  18386-4 0  9990","COUNTRY_CODE":"US","BSTAR":"0.00001838600000","OBJECT_TYPE":"PAYLOAD","MEAN_ANOMALY":"320.3261","RCS_SIZE":"LARGE","OBJECT_NAME":"STARLINK-4571","ARG_OF_PERICENTER":"39.8204","MEAN_ELEMENT_THEORY":"SGP4","LAUNCH_DATE":"2022-08-31","MEAN_MOTION_DOT":"0.00000177","APOAPSIS":"565.299","TLE_LINE2":"2 53688  97.6562  58.5931 0003288  39.8204 320.3261 15.01258546 45435","SEMIMAJOR_AXIS":"6941.151","NORAD_CAT_ID":"53688","GP_ID":"234573882","ECCENTRICITY":"0.00032880","MEAN_MOTION":"15.01258546","EPOCH":"2023-06-26T15:56:15.628128","MEAN_MOTION_DDOT":"0.0000000000000","CENTER_NAME":"EARTH","EPHEMERIS_TYPE":"0","REV_AT_EPOCH":"4543","OBJECT_ID":"2022-105AS","SITE":"AFWTR","ELEMENT_SET_NO":"999","PERIOD":"95.920","RA_OF_ASC_NODE":"58.5931","DECAY_DATE":null,"PERIAPSIS":"560.734","INCLINATION":"97.6562","CLASSIFICATION_TYPE":"U","FILE":"3943656","REF_FRAME":"TEME"},{"TLE_LINE2":"2 53689  97.6555  58.8770 0001288  99.5301 260.6069 15.01257850 45474","NORAD_CAT_ID":"53689","GP_ID":"234579833","SEMIMAJOR_AXIS":"6941.153","MEAN_MOTION":"15.01257850","ECCENTRICITY":"0.00012880","MEAN_MOTION_DOT":"-0.00000500","APOAPSIS":"563.912","ARG_OF_PERICENTER":"99.5301","OBJECT_NAME":"STARLINK-4562","MEAN_ELEMENT_THEORY":"SGP4","LAUNCH_DATE":"2022-08-31","TLE_LINE1":"1 53689U 22105AT  23177.91795883 -.00000500  00000-0 -34340-4 0  9996","TIME_SYSTEM":"UTC","COUNTRY_CODE":"US","OBJECT_TYPE":"PAYLOAD","BSTAR":"-0.00003434000000","RCS_SIZE":"LARGE","MEAN_ANOMALY":"260.6069","REF_FRAME":"TEME","FILE":"3943892","RA_OF_ASC_NODE":"58.8770","DECAY_DATE":null,"PERIAPSIS":"562.124","INCLINATION":"97.6555","CLASSIFICATION_TYPE":"U","PERIOD":"95.920","ELEMENT_SET_NO":"999","MEAN_MOTION_DDOT":"0.0000000000000","EPOCH":"2023-06-26T22:01:51.642912","CENTER_NAME":"EARTH","REV_AT_EPOCH":"4547","EPHEMERIS_TYPE":"0","SITE":"AFWTR","OBJECT_ID":"2022-105AT"},{"APOAPSIS":"564.733","MEAN_MOTION_DOT":"0.00001254","MEAN_MOTION":"15.01259341","ECCENTRICITY":"0.00024770","TLE_LINE2":"2 53690  97.6563  59.1830 0002477  94.8662 265.2845 15.01259341 45521","NORAD_CAT_ID":"53690","GP_ID":"234586712","SEMIMAJOR_AXIS":"6941.149","OBJECT_TYPE":"PAYLOAD","BSTAR":"0.00010221000000","MEAN_ANOMALY":"265.2845","RCS_SIZE":"LARGE","TLE_LINE1":"1 53690U 22105AU  23178.26048154  .00001254  00000-0  10221-3 0  9995","TIME_SYSTEM":"UTC","COUNTRY_CODE":"US","LAUNCH_DATE":"2022-08-31","ARG_OF_PERICENTER":"94.8662","OBJECT_NAME":"STARLINK-4570","MEAN_ELEMENT_THEORY":"SGP4","PERIAPSIS":"561.295","INCLINATION":"97.6563","CLASSIFICATION_TYPE":"U","RA_OF_ASC_NODE":"59.1830","DECAY_DATE":null,"REF_FRAME":"TEME","FILE":"3944186","REV_AT_EPOCH":"4552","EPHEMERIS_TYPE":"0","SITE":"AFWTR","OBJECT_ID":"2022-105AU","MEAN_MOTION_DDOT":"0.0000000000000","EPOCH":"2023-06-27T06:15:05.605056","CENTER_NAME":"EARTH","ELEMENT_SET_NO":"999","PERIOD":"95.919"},{"MEAN_MOTION_DOT":"0.00001628","APOAPSIS":"566.548","TLE_LINE2":"2 53691  97.6559  59.3098 0005109  70.9584 289.2193 15.01263298 45548","SEMIMAJOR_AXIS":"6941.137","GP_ID":"234587140","NORAD_CAT_ID":"53691","ECCENTRICITY":"0.00051090","MEAN_MOTION":"15.01263298","TIME_SYSTEM":"UTC","TLE_LINE1":"1 53691U 22105AV  23178.39910036  .00001628  00000-0  13125-3 0  9998","COUNTRY_CODE":"US","BSTAR":"0.00013125000000","OBJECT_TYPE":"PAYLOAD","MEAN_ANOMALY":"289.2193","RCS_SIZE":"LARGE","ARG_OF_PERICENTER":"70.9584","OBJECT_NAME":"STARLINK-4560","MEAN_ELEMENT_THEORY":"SGP4","LAUNCH_DATE":"2022-08-31","RA_OF_ASC_NODE":"59.3098","DECAY_DATE":null,"INCLINATION":"97.6559","PERIAPSIS":"559.455","CLASSIFICATION_TYPE":"U","FILE":"3944190","REF_FRAME":"TEME","EPOCH":"2023-06-27T09:34:42.271104","MEAN_MOTION_DDOT":"0.0000000000000","CENTER_NAME":"EARTH","EPHEMERIS_TYPE":"0","REV_AT_EPOCH":"4554","OBJECT_ID":"2022-105AV","SITE":"AFWTR","PERIOD":"95.919","ELEMENT_SET_NO":"999"},{"OBJECT_NAME":"STARLINK-4572","ARG_OF_PERICENTER":"85.4125","MEAN_ELEMENT_THEORY":"SGP4","LAUNCH_DATE":"2022-08-31","TIME_SYSTEM":"UTC","TLE_LINE1":"1 53692U 22105AW  23177.66036594  .00000126  00000-0  14398-4 0  9992","COUNTRY_CODE":"US","BSTAR":"0.00001439800000","OBJECT_TYPE":"PAYLOAD","MEAN_ANOMALY":"274.7313","RCS_SIZE":"LARGE","TLE_LINE2":"2 53692  97.6567  58.5862 0001866  85.4125 274.7313 15.01257196 45437","SEMIMAJOR_AXIS":"6941.155","NORAD_CAT_ID":"53692","GP_ID":"234574470","ECCENTRICITY":"0.00018660","MEAN_MOTION":"15.01257196","MEAN_MOTION_DOT":"0.00000126","APOAPSIS":"564.316","ELEMENT_SET_NO":"999","PERIOD":"95.920","EPOCH":"2023-06-26T15:50:55.617216","MEAN_MOTION_DDOT":"0.0000000000000","CENTER_NAME":"EARTH","EPHEMERIS_TYPE":"0","REV_AT_EPOCH":"4543","OBJECT_ID":"2022-105AW","SITE":"AFWTR","FILE":"3943663","REF_FRAME":"TEME","RA_OF_ASC_NODE":"58.5862","DECAY_DATE":null,"PERIAPSIS":"561.725","INCLINATION":"97.6567","CLASSIFICATION_TYPE":"U"}];
